QIANFAN-9               
1 60387U 24140J   25294.02458531  .00000083  00000+0  10925-3 0  9995
2 60387  88.9741 304.8025 0016050 357.6231   2.4841 13.50974411 60217
QIANFAN-10              
1 60388U 24140K   25294.02875666  .00000068  00000+0  87208-4 0  9990
2 60388  88.9749 304.1440 0013723 334.9974  25.0511 13.50971103 60340
QIANFAN-11              
1 60389U 24140L   25293.99167653  .00000072  00000+0  92294-4 0  9992
2 60389  88.9676 304.7745 0014098 358.4681   1.6425 13.50971762 59990
QIANFAN-12              
1 60390U 24140M   25294.01220029  .00000070  00000+0  90407-4 0  9997
2 60390  88.9720 304.7927 0013231   7.3011 352.8330 13.50972119 60129
QIANFAN-13              
1 60391U 24140N   25293.98341556  .00000084  00000+0  11128-3 0  9999
2 60391  88.9732 304.8891 0013149  10.1575 349.9840 13.50972382 60146
QIANFAN-14              
1 60392U 24140P   25294.00800949  .00000068  00000+0  86616-4 0  9997
2 60392  88.9711 304.7954 0016795   7.9418 352.1996 13.50972732 60151
QIANFAN-15              
1 60393U 24140Q   25294.01621892 -.00000109  00000+0 -18703-3 0  9996
2 60393  88.9731 304.7383 0012134 356.2952   3.8108 13.50973383 60143
QIANFAN-16              
1 60394U 24140R   25294.00405575  .00000068  00000+0  86428-4 0  9996
2 60394  88.9738 304.8584 0014899  12.7873 347.3653 13.50971732 60058
